HAWK-A                  
1 43765U 18099H   26199.71613017  .00003486  00000+0  14030-3 0  9996
2 43765  97.3892 251.5450 0035084 171.6437 188.5393 15.24990780417909
HAWK-B                  
1 43794U 18099AN  26199.70987625  .00003019  00000+0  12918-3 0  9991
2 43794  97.3943 250.8871 0031733 189.6136 170.4498 15.23137637417830
HAWK-C                  
1 43799U 18099AT  26199.81701940  .00004507  00000+0  16122-3 0  9996
2 43799  97.3867 252.7143 0040681 171.0810 189.1162 15.28524202418748
HAWK-2C                 
1 47502U 21006CT  26199.83718537  .00003507  00000+0  10546-3 0  9999
2 47502  97.2259 243.5203 0008684  90.6516 269.5723 15.35015243304354
HAWK-2A                 
1 47505U 21006CW  26199.57860905  .00003430  00000+0  10312-3 0  9996
2 47505  97.2300 243.9628 0008241  94.6100 265.6085 15.35034159304312
HAWK-2B                 
1 47508U 21006CZ  26199.83257904  .00004006  00000+0  11954-3 0  9990
2 47508  97.2171 242.4940 0008766  92.3093 267.9155 15.35166052304355
HAWK-3B                 
1 48931U 21059BE  26199.09212460  .00031299  00000+0  23996-3 0  9998
2 48931  97.6632  38.7819 0004731 187.5925 172.5267 15.72043913282702
HAWK-3C                 
1 48948U 21059BX  26199.09180544  .00029344  00000+0  22507-3 0  9998
2 48948  97.6749  44.5200 0005037 187.8290 172.2895 15.72043790282703
HAWK-3A                 
1 48957U 21059CG  26199.85552919  .00031385  00000+0  24015-3 0  9995
2 48957  97.6697  42.5394 0004982 187.6639 172.4548 15.72088161282821
HAWK-5C                 
1 52754U 22057Y   26199.83170368  .00010355  00000+0  17136-3 0  9996
2 52754  97.6627   1.5702 0002476 329.0147  31.0959 15.52404760231256
HAWK-5B                 
1 52756U 22057AA  26199.12248197  .00010427  00000+0  17265-3 0  9999
2 52756  97.6638 359.1680 0003199 318.5187  41.5822 15.52385437231149
HAWK-5A                 
1 52757U 22057AB  26199.70240933  .00010026  00000+0  16600-3 0  9991
2 52757  97.6636   0.6166 0003032 321.3858  38.7177 15.52399946231239
HAWK-6B                 
1 55324U 23011A   26198.93568646  .00002570  00000+0  11461-3 0  9998
2 55324  40.4976 172.6890 0004472 254.5549 105.4766 15.23169163192531
HAWK-6C                 
1 55326U 23011C   26199.26288320  .00002222  00000+0  10020-3 0  9999
2 55326  40.4967 167.6154 0004974 250.3835 109.6437 15.23170261192597
HAWK-6A                 
1 55327U 23011D   26199.19735523  .00002317  00000+0  10414-3 0  9996
2 55327  40.4977 169.6247 0004620 247.0466 112.9856 15.23169943192581
HAWK-7A                 
1 56191U 23054P   26199.68519509  .00002769  00000+0  10512-3 0  9991
2 56191  97.2654  86.2214 0001106 310.3898  49.7245 15.27653187181837
