{"fetched_at":"2026-07-19T07:05:13.019Z","source":"https://celestrak.org/NORAD/elements/gp.php?NAME=HAWK&FORMAT=JSON","constellation":"hawkeye-360","records":[{"OBJECT_NAME":"HAWK-A","OBJECT_ID":"2018-099H","EPOCH":"2026-07-18T17:11:13.646688","CLASSIFICATION_TYPE":"U","MEAN_MOTION":15.2499078,"ECCENTRICITY":0.0035084,"INCLINATION":97.3892,"RA_OF_ASC_NODE":251.545,"ARG_OF_PERICENTER":171.6437,"MEAN_ANOMALY":188.5393,"EPHEMERIS_TYPE":0,"NORAD_CAT_ID":43765,"ELEMENT_SET_NO":999,"REV_AT_EPOCH":41790,"BSTAR":0.0001403,"MEAN_MOTION_DOT":0.00003486,"MEAN_MOTION_DDOT":0},{"OBJECT_NAME":"HAWK-B","OBJECT_ID":"2018-099AN","EPOCH":"2026-07-18T17:02:13.308000","CLASSIFICATION_TYPE":"U","MEAN_MOTION":15.23137637,"ECCENTRICITY":0.0031733,"INCLINATION":97.3943,"RA_OF_ASC_NODE":250.8871,"ARG_OF_PERICENTER":189.6136,"MEAN_ANOMALY":170.4498,"EPHEMERIS_TYPE":0,"NORAD_CAT_ID":43794,"ELEMENT_SET_NO":999,"REV_AT_EPOCH":41783,"BSTAR":0.00012918,"MEAN_MOTION_DOT":0.00003019,"MEAN_MOTION_DDOT":0},{"OBJECT_NAME":"HAWK-C","OBJECT_ID":"2018-099AT","EPOCH":"2026-07-18T19:36:30.476160","CLASSIFICATION_TYPE":"U","MEAN_MOTION":15.28524202,"ECCENTRICITY":0.0040681,"INCLINATION":97.3867,"RA_OF_ASC_NODE":252.7143,"ARG_OF_PERICENTER":171.081,"MEAN_ANOMALY":189.1162,"EPHEMERIS_TYPE":0,"NORAD_CAT_ID":43799,"ELEMENT_SET_NO":999,"REV_AT_EPOCH":41874,"BSTAR":0.00016122,"MEAN_MOTION_DOT":0.00004507,"MEAN_MOTION_DDOT":0},{"OBJECT_NAME":"HAWK-2C","OBJECT_ID":"2021-006CT","EPOCH":"2026-07-18T20:05:32.815968","CLASSIFICATION_TYPE":"U","MEAN_MOTION":15.35015243,"ECCENTRICITY":0.0008684,"INCLINATION":97.2259,"RA_OF_ASC_NODE":243.5203,"ARG_OF_PERICENTER":90.6516,"MEAN_ANOMALY":269.5723,"EPHEMERIS_TYPE":0,"NORAD_CAT_ID":47502,"ELEMENT_SET_NO":999,"REV_AT_EPOCH":30435,"BSTAR":0.00010546,"MEAN_MOTION_DOT":0.00003507,"MEAN_MOTION_DDOT":0},{"OBJECT_NAME":"HAWK-2A","OBJECT_ID":"2021-006CW","EPOCH":"2026-07-18T13:53:11.821920","CLASSIFICATION_TYPE":"U","MEAN_MOTION":15.35034159,"ECCENTRICITY":0.0008241,"INCLINATION":97.23,"RA_OF_ASC_NODE":243.9628,"ARG_OF_PERICENTER":94.61,"MEAN_ANOMALY":265.6085,"EPHEMERIS_TYPE":0,"NORAD_CAT_ID":47505,"ELEMENT_SET_NO":999,"REV_AT_EPOCH":30431,"BSTAR":0.00010312,"MEAN_MOTION_DOT":0.0000343,"MEAN_MOTION_DDOT":0},{"OBJECT_NAME":"HAWK-2B","OBJECT_ID":"2021-006CZ","EPOCH":"2026-07-18T19:58:54.829056","CLASSIFICATION_TYPE":"U","MEAN_MOTION":15.35166052,"ECCENTRICITY":0.0008766,"INCLINATION":97.2171,"RA_OF_ASC_NODE":242.494,"ARG_OF_PERICENTER":92.3093,"MEAN_ANOMALY":267.9155,"EPHEMERIS_TYPE":0,"NORAD_CAT_ID":47508,"ELEMENT_SET_NO":999,"REV_AT_EPOCH":30435,"BSTAR":0.00011954,"MEAN_MOTION_DOT":0.00004006,"MEAN_MOTION_DDOT":0},{"OBJECT_NAME":"HAWK-3B","OBJECT_ID":"2021-059BE","EPOCH":"2026-07-18T02:12:39.565440","CLASSIFICATION_TYPE":"U","MEAN_MOTION":15.72043913,"ECCENTRICITY":0.00047312,"INCLINATION":97.6632,"RA_OF_ASC_NODE":38.7819,"ARG_OF_PERICENTER":187.5925,"MEAN_ANOMALY":172.5267,"EPHEMERIS_TYPE":0,"NORAD_CAT_ID":48931,"ELEMENT_SET_NO":999,"REV_AT_EPOCH":28270,"BSTAR":0.00023995635,"MEAN_MOTION_DOT":0.00031299,"MEAN_MOTION_DDOT":0},{"OBJECT_NAME":"HAWK-3C","OBJECT_ID":"2021-059BX","EPOCH":"2026-07-18T02:12:11.990016","CLASSIFICATION_TYPE":"U","MEAN_MOTION":15.7204379,"ECCENTRICITY":0.00050371,"INCLINATION":97.6749,"RA_OF_ASC_NODE":44.52,"ARG_OF_PERICENTER":187.829,"MEAN_ANOMALY":172.2895,"EPHEMERIS_TYPE":0,"NORAD_CAT_ID":48948,"ELEMENT_SET_NO":999,"REV_AT_EPOCH":28270,"BSTAR":0.00022506655,"MEAN_MOTION_DOT":0.00029344,"MEAN_MOTION_DDOT":0},{"OBJECT_NAME":"HAWK-3A","OBJECT_ID":"2021-059CG","EPOCH":"2026-07-18T20:31:57.722016","CLASSIFICATION_TYPE":"U","MEAN_MOTION":15.72088161,"ECCENTRICITY":0.0004982,"INCLINATION":97.6697,"RA_OF_ASC_NODE":42.5394,"ARG_OF_PERICENTER":187.6639,"MEAN_ANOMALY":172.4548,"EPHEMERIS_TYPE":0,"NORAD_CAT_ID":48957,"ELEMENT_SET_NO":999,"REV_AT_EPOCH":28282,"BSTAR":0.00024015,"MEAN_MOTION_DOT":0.00031385,"MEAN_MOTION_DDOT":0},{"OBJECT_NAME":"HAWK-5C","OBJECT_ID":"2022-057Y","EPOCH":"2026-07-18T19:57:39.197952","CLASSIFICATION_TYPE":"U","MEAN_MOTION":15.5240476,"ECCENTRICITY":0.0002476,"INCLINATION":97.6627,"RA_OF_ASC_NODE":1.5702,"ARG_OF_PERICENTER":329.0147,"MEAN_ANOMALY":31.0959,"EPHEMERIS_TYPE":0,"NORAD_CAT_ID":52754,"ELEMENT_SET_NO":999,"REV_AT_EPOCH":23125,"BSTAR":0.00017136,"MEAN_MOTION_DOT":0.00010355,"MEAN_MOTION_DDOT":0},{"OBJECT_NAME":"HAWK-5B","OBJECT_ID":"2022-057AA","EPOCH":"2026-07-18T02:56:22.442208","CLASSIFICATION_TYPE":"U","MEAN_MOTION":15.52385437,"ECCENTRICITY":0.0003199,"INCLINATION":97.6638,"RA_OF_ASC_NODE":359.168,"ARG_OF_PERICENTER":318.5187,"MEAN_ANOMALY":41.5822,"EPHEMERIS_TYPE":0,"NORAD_CAT_ID":52756,"ELEMENT_SET_NO":999,"REV_AT_EPOCH":23114,"BSTAR":0.00017264586,"MEAN_MOTION_DOT":0.00010427,"MEAN_MOTION_DDOT":0},{"OBJECT_NAME":"HAWK-5A","OBJECT_ID":"2022-057AB","EPOCH":"2026-07-18T16:51:28.166112","CLASSIFICATION_TYPE":"U","MEAN_MOTION":15.52399946,"ECCENTRICITY":0.0003032,"INCLINATION":97.6636,"RA_OF_ASC_NODE":0.6166,"ARG_OF_PERICENTER":321.3858,"MEAN_ANOMALY":38.7177,"EPHEMERIS_TYPE":0,"NORAD_CAT_ID":52757,"ELEMENT_SET_NO":999,"REV_AT_EPOCH":23123,"BSTAR":0.000166,"MEAN_MOTION_DOT":0.00010026,"MEAN_MOTION_DDOT":0},{"OBJECT_NAME":"HAWK-6B","OBJECT_ID":"2023-011A","EPOCH":"2026-07-17T22:27:23.310144","CLASSIFICATION_TYPE":"U","MEAN_MOTION":15.23169163,"ECCENTRICITY":0.00044723,"INCLINATION":40.4976,"RA_OF_ASC_NODE":172.689,"ARG_OF_PERICENTER":254.5549,"MEAN_ANOMALY":105.4766,"EPHEMERIS_TYPE":0,"NORAD_CAT_ID":55324,"ELEMENT_SET_NO":999,"REV_AT_EPOCH":19253,"BSTAR":0.00011460971,"MEAN_MOTION_DOT":0.0000257,"MEAN_MOTION_DDOT":0},{"OBJECT_NAME":"HAWK-6C","OBJECT_ID":"2023-011C","EPOCH":"2026-07-18T06:18:33.108480","CLASSIFICATION_TYPE":"U","MEAN_MOTION":15.23170261,"ECCENTRICITY":0.00049743,"INCLINATION":40.4967,"RA_OF_ASC_NODE":167.6154,"ARG_OF_PERICENTER":250.3835,"MEAN_ANOMALY":109.6437,"EPHEMERIS_TYPE":0,"NORAD_CAT_ID":55326,"ELEMENT_SET_NO":999,"REV_AT_EPOCH":19259,"BSTAR":0.00010019816,"MEAN_MOTION_DOT":0.00002222,"MEAN_MOTION_DDOT":0},{"OBJECT_NAME":"HAWK-6A","OBJECT_ID":"2023-011D","EPOCH":"2026-07-18T04:44:11.491872","CLASSIFICATION_TYPE":"U","MEAN_MOTION":15.23169943,"ECCENTRICITY":0.00046206,"INCLINATION":40.4977,"RA_OF_ASC_NODE":169.6247,"ARG_OF_PERICENTER":247.0466,"MEAN_ANOMALY":112.9856,"EPHEMERIS_TYPE":0,"NORAD_CAT_ID":55327,"ELEMENT_SET_NO":999,"REV_AT_EPOCH":19258,"BSTAR":0.00010414425,"MEAN_MOTION_DOT":0.00002317,"MEAN_MOTION_DDOT":0},{"OBJECT_NAME":"HAWK-7A","OBJECT_ID":"2023-054P","EPOCH":"2026-07-18T16:26:40.855776","CLASSIFICATION_TYPE":"U","MEAN_MOTION":15.27653187,"ECCENTRICITY":0.0001106,"INCLINATION":97.2654,"RA_OF_ASC_NODE":86.2214,"ARG_OF_PERICENTER":310.3898,"MEAN_ANOMALY":49.7245,"EPHEMERIS_TYPE":0,"NORAD_CAT_ID":56191,"ELEMENT_SET_NO":999,"REV_AT_EPOCH":18183,"BSTAR":0.00010512,"MEAN_MOTION_DOT":0.00002769,"MEAN_MOTION_DDOT":0}]}
